ONEWEB-0264             
1 48982U 21060R   23255.47640340  .00000144  00000+0  34425-3 0  9994
2 48982  87.9002  69.5569 0001774  90.4046 269.7288 13.16595298106863
ONEWEB-0266             
1 48984U 21060T   23255.49857262  .00000076  00000+0  16616-3 0  9997
2 48984  87.8996  69.5398 0001690  85.6314 274.5010 13.16596356106859
ONEWEB-0267             
1 48985U 21060U   23255.50912081 -.00000012  00000+0 -66243-4 0  9995
2 48985  87.8994  69.5386 0002152  98.5441 261.5934 13.16593970106864
ONEWEB-0268             
1 48986U 21060V   23255.55343399 -.00000202  00000+0 -56210-3 0  9994
2 48986  87.8992  69.5327 0001611  94.6165 265.5150 13.16595844107134
ONEWEB-0269             
1 48987U 21060W   23255.53444630  .00000075  00000+0  16155-3 0  9993
2 48987  87.9085  69.5394 0001660  90.4878 269.6443 13.16592896106900
ONEWEB-0270             
1 48988U 21060X   23255.55134413  .00000106  00000+0  24250-3 0  9991
2 48988  87.8995  69.5472 0002486  88.1359 272.0057 13.16592310106946
ONEWEB-0271             
1 48989U 21060Y   23255.53867554 -.00000001  00000+0 -35001-4 0  9992
2 48989  87.8996  69.5252 0002190  94.9097 265.2284 13.16591742106944
ONEWEB-0272             
1 48990U 21060Z   23255.56189517  .00000245  00000+0  60621-3 0  9996
2 48990  87.8999  69.5442 0002075  95.0720 265.0648 13.16593382106895
